NORAD_CAT_ID,OBJECT_NAME,OBJECT_TYPE,EPOCH,MEAN_MOTION,ECCENTRICITY,INCLINATION,RA_OF_ASC_NODE,ARG_OF_PERICENTER,MEAN_ANOMALY,BSTAR,MEAN_MOTION_DOT,MEAN_MOTION_DDOT,TLE_LINE0,TLE_LINE1,TLE_LINE2,SEMIMAJOR_AXIS,PERIOD,APOGEE,PERIGEE,DECAYED
53640.0,STARLINK-4597,PAYLOAD,2023-04-11 00:55:25,15.08842965,8.99e-05,53.2167,318.7846,91.794,268.3155,0.0001321,1.815e-05,0.0,0 STARLINK-4597,1 53640U 22104BE  23101.03848483  .00001815  00000-0  13210-3 0  9997,2 53640  53.2167 318.7846 0000899  91.7940 268.3155 15.08842965 35654,6917.871,95.437,540.358,539.114,0.0
53640.0,STARLINK-4597,PAYLOAD,2023-04-12 13:29:17,15.08838957,0.0001216,53.2136,311.9453,88.5101,271.603,8.5808e-05,1.078e-05,0.0,0 STARLINK-4597,1 53640U 22104BE  23102.56201095  .00001078  00000-0  85808-4 0  9992,2 53640  53.2136 311.9453 0001216  88.5101 271.6030 15.08838957 35886,6917.884,95.438,540.59,538.907,0.0
53640.0,STARLINK-4597,PAYLOAD,2023-04-13 00:36:59,15.08846059,0.0001088,53.2171,309.8631,100.3744,259.737,0.00024435,3.604e-05,0.0,0 STARLINK-4597,1 53640U 22104BE  23103.02568755  .00003604  00000-0  24435-3 0  9998,2 53640  53.2171 309.8631 0001088 100.3744 259.7370 15.08846059 35956,6917.862,95.437,540.48,538.974,0.0
53640.0,STARLINK-4597,PAYLOAD,2023-04-13 21:17:00,15.08847811,8.48e-05,53.2163,305.998,73.2622,286.8463,1.6154e-05,-3.1e-07,0.0,0 STARLINK-4597,1 53640U 22104BE  23103.88680731 -.00000031  00000-0  16154-4 0  9993,2 53640  53.2163 305.9980 0000848  73.2622 286.8463 15.08847811 35060,6917.857,95.437,540.308,539.135,0.0
53640.0,STARLINK-4597,PAYLOAD,2023-04-14 13:10:51,15.08842183,0.0001261,53.2177,303.0281,66.0335,294.0789,0.00012794,1.749e-05,0.0,0 STARLINK-4597,1 53640U 22104BE  23104.54921250  .00001749  00000-0  12794-3 0  9992,2 53640  53.2177 303.0281 0001261  66.0335 294.0789 15.08842183 35169,6917.874,95.437,540.611,538.866,0.0
53640.0,STARLINK-4597,PAYLOAD,2023-04-15 13:01:39,15.08826549,0.0001186,53.2173,298.5675,80.2002,279.9124,-4.6311e-05,-1.024e-05,0.0,0 STARLINK-4597,1 53640U 22104BE  23105.54282364 -.00001024  00000-0 -46311-4 0  9990,2 53640  53.2173 298.5675 0001186  80.2002 279.9124 15.08826549 35315,6917.922,95.438,540.607,538.966,0.0
53640.0,STARLINK-4597,PAYLOAD,2023-04-15 19:23:12,15.08821174,8.66e-05,53.2156,297.3749,83.8237,276.2854,-8.6538e-05,-1.664e-05,0.0,0 STARLINK-4597,1 53640U 22104BE  23105.80778857 -.00001664  00000-0 -86538-4 0  9991,2 53640  53.2156 297.3749 0000866  83.8237 276.2854 15.08821174 36374,6917.938,95.439,540.402,539.204,0.0
53640.0,STARLINK-4597,PAYLOAD,2023-04-16 12:52:27,15.08841308,7.73e-05,53.2161,294.1029,92.618,267.4901,0.00022342,3.27e-05,0.0,0 STARLINK-4597,1 53640U 22104BE  23106.53642459  .00003270  00000-0  22342-3 0  9995,2 53640  53.2161 294.1029 0000773  92.6180 267.4901 15.08841308 35463,6917.876,95.437,540.276,539.207,0.0
53640.0,STARLINK-4597,PAYLOAD,2023-04-16 20:49:22,15.08862789,7.24e-05,53.2158,292.617,89.5073,270.6002,0.0012359,0.00019448,0.0,0 STARLINK-4597,1 53640U 22104BE  23106.86762398  .00019448  00000-0  12359-2 0  9996,2 53640  53.2158 292.6170 0000724  89.5073 270.6002 15.08862789 36534,6917.811,95.436,540.177,539.175,0.0
53640.0,STARLINK-4597,PAYLOAD,2023-04-17 04:46:18,15.08865589,7.28e-05,53.2163,291.1292,87.1754,272.9322,0.00079353,0.00012373,0.0,0 STARLINK-4597,1 53640U 22104BE  23107.19881979  .00012373  00000-0  79353-3 0  9998,2 53640  53.2163 291.1292 0000728  87.1754 272.9322 15.08865589 35566,6917.802,95.436,540.171,539.164,0.0
53640.0,STARLINK-4597,PAYLOAD,2023-04-17 12:43:13,15.08865645,0.0001619,53.2157,289.6427,104.9182,255.1989,0.00057322,8.853e-05,0.0,0 STARLINK-4597,1 53640U 22104BE  23107.53001860  .00008853  00000-0  57322-3 0  9999,2 53640  53.2157 289.6427 0001619 104.9182 255.1989 15.08865645 36638,6917.802,95.436,540.787,538.547,0.0
53640.0,STARLINK-4597,PAYLOAD,2023-04-17 20:40:09,15.08867903,9.15e-05,53.2157,288.1567,82.6399,277.4697,0.0018705,0.00029629,0.0,0 STARLINK-4597,1 53640U 22104BE  23107.86121568  .00029629  00000-0  18705-2 0  9998,2 53640  53.2157 288.1567 0000915  82.6399 277.4697 15.08867903 36684,6917.795,95.436,540.293,539.027,0.0
53640.0,STARLINK-4597,PAYLOAD,2023-04-18 10:58:37,15.08857852,0.0002248,53.2152,285.4796,73.5487,286.5752,0.0013652,0.00021517,0.0,0 STARLINK-4597,1 53640U 22104BE  23108.45737996  .00021517  00000-0  13652-2 0  9996,2 53640  53.2152 285.4796 0002248  73.5487 286.5752 15.08857852 36776,6917.826,95.436,541.246,538.136,0.0
53640.0,STARLINK-4597,PAYLOAD,2023-04-18 18:55:32,15.08851148,8.99e-05,53.2157,283.993,103.6201,256.4892,0.0010687,0.00016766,0.0,0 STARLINK-4597,1 53640U 22104BE  23108.78857601  .00016766  00000-0  10687-2 0  9993,2 53640  53.2157 283.9930 0000899 103.6201 256.4892 15.08851148 36822,6917.846,95.437,540.333,539.089,0.0
53640.0,STARLINK-4597,PAYLOAD,2023-04-19 04:27:51,15.08857119,7e-05,53.215,282.209,84.6666,275.4406,0.00088481,0.00013828,0.0,0 STARLINK-4597,1 53640U 22104BE  23109.18601357  .00013828  00000-0  88481-3 0  9997,2 53640  53.2150 282.2090 0000700  84.6666 275.4406 15.08857119 36880,6917.828,95.436,540.177,539.209,0.0
53640.0,STARLINK-4597,PAYLOAD,2023-04-19 17:10:56,15.08844965,0.0001287,53.2159,279.8293,86.229,273.8849,0.00060777,9.399e-05,0.0,0 STARLINK-4597,1 53640U 22104BE  23109.71593619  .00009399  00000-0  60777-3 0  9993,2 53640  53.2159 279.8293 0001287  86.2290 273.8849 15.08844965 36965,6917.865,95.437,540.621,538.84,0.0
53640.0,STARLINK-4597,PAYLOAD,2023-04-20 10:40:11,15.0883929,9.27e-05,53.215,276.5589,86.4219,273.6879,0.00021537,3.141e-05,0.0,0 STARLINK-4597,1 53640U 22104BE  23110.44457517  .00003141  00000-0  21537-3 0  9991,2 53640  53.2150 276.5589 0000927  86.4219 273.6879 15.08839290 37070,6917.883,95.438,540.389,539.106,0.0
53640.0,STARLINK-4597,PAYLOAD,2023-04-20 17:01:43,15.08840235,0.0001038,53.2154,275.3694,81.312,278.799,0.00037115,5.624e-05,0.0,0 STARLINK-4597,1 53640U 22104BE  23110.70953636  .00005624  00000-0  37115-3 0  9990,2 53640  53.2154 275.3694 0001038  81.3120 278.7990 15.08840235 36099,6917.88,95.438,540.463,539.027,0.0
53640.0,STARLINK-4597,PAYLOAD,2023-04-20 18:37:07,15.08842284,0.0001067,53.2158,275.0722,79.5934,280.5178,0.00048955,7.512e-05,0.0,0 STARLINK-4597,1 53640U 22104BE  23110.77577635  .00007512  00000-0  48955-3 0  9990,2 53640  53.2158 275.0722 0001067  79.5934 280.5178 15.08842284 37126,6917.873,95.437,540.477,539.0,0.0
53640.0,STARLINK-4597,PAYLOAD,2023-04-21 16:52:31,15.08845887,0.0001245,53.2156,270.9096,68.6094,291.5031,0.00040598,6.18e-05,0.0,0 STARLINK-4597,1 53640U 22104BE  23111.70313686  .00006180  00000-0  40598-3 0  9993,2 53640  53.2156 270.9096 0001245  68.6094 291.5031 15.08845887 37263,6917.862,95.437,540.589,538.866,0.0
53640.0,STARLINK-4597,PAYLOAD,2023-04-22 04:00:12,15.08850985,0.0001088,53.2148,268.8289,63.6721,296.4382,0.00053834,8.293e-05,0.0,0 STARLINK-4597,1 53640U 22104BE  23112.16681511  .00008293  00000-0  53834-3 0  9993,2 53640  53.2148 268.8289 0001088  63.6721 296.4382 15.08850985 37337,6917.847,95.437,540.464,538.959,0.0
53640.0,STARLINK-4597,PAYLOAD,2023-04-22 16:43:17,15.0885065,0.0001312,53.216,266.4473,84.3795,275.7346,0.00040098,6.101e-05,0.0,0 STARLINK-4597,1 53640U 22104BE  23112.69673401  .00006101  00000-0  40098-3 0  9994,2 53640  53.2160 266.4473 0001312  84.3795 275.7346 15.08850650 36395,6917.848,95.437,540.62,538.805,0.0
53640.0,STARLINK-4597,PAYLOAD,2023-04-23 10:12:32,15.08831725,0.000131,53.2154,263.1791,60.333,299.7792,-5.5421e-05,-1.17e-05,0.0,0 STARLINK-4597,1 53640U 22104BE  23113.42538121 -.00001170  00000-0 -55421-4 0  9995,2 53640  53.2154 263.1791 0001310  60.3330 299.7792 15.08831725 37521,6917.906,95.438,540.677,538.864,0.0
53640.0,STARLINK-4597,PAYLOAD,2023-04-23 21:20:15,15.08841421,0.000179,53.2149,261.0969,67.9565,292.1617,0.00041,6.243e-05,0.0,0 STARLINK-4597,1 53640U 22104BE  23113.88906299  .00006243  00000-0  41000-3 0  9991,2 53640  53.2149 261.0969 0001790  67.9565 292.1617 15.08841421 37598,6917.876,95.437,540.979,538.503,0.0
53640.0,STARLINK-4597,PAYLOAD,2023-04-24 10:03:19,15.0888997,0.0001392,53.2162,258.7144,99.495,260.6199,0.0018689,0.00029622,0.0,0 STARLINK-4597,1 53640U 22104BE  23114.41897131  .00029622  00000-0  18689-2 0  9997,2 53640  53.2162 258.7144 0001392  99.4950 260.6199 15.08889970 37672,6917.728,95.434,540.556,538.63,0.0
53640.0,STARLINK-4597,PAYLOAD,2023-04-24 16:24:51,15.08921247,0.0001832,53.2153,257.5258,92.1974,267.9228,0.0033854,0.00054126,0.0,0 STARLINK-4597,1 53640U 22104BE  23114.68392425  .00054126  00000-0  33854-2 0  9990,2 53640  53.2153 257.5258 0001832  92.1974 267.9228 15.08921247 36698,6917.632,95.432,540.764,538.23,0.0
53640.0,STARLINK-4597,PAYLOAD,2023-04-25 01:57:10,15.08810406,0.0002112,53.2163,255.743,99.8613,260.2618,-0.003089,-0.00049077,0.0,0 STARLINK-4597,1 53640U 22104BE  23115.08137027 -.00049077  00000-0 -30890-2 0  9998,2 53640  53.2163 255.7430 0002112  99.8613 260.2618 15.08810406 36757,6917.971,95.439,541.297,538.375,0.0
53640.0,STARLINK-4597,PAYLOAD,2023-04-25 11:29:30,15.08781464,0.0001684,53.2171,253.9585,124.6794,235.4357,-0.00073602,-0.00011964,0.0,0 STARLINK-4597,1 53640U 22104BE  23115.47882266 -.00011964  00000-0 -73602-3 0  9996,2 53640  53.2171 253.9585 0001684 124.6794 235.4357 15.08781464 37832,6918.059,95.441,541.089,538.759,0.0
53640.0,STARLINK-4597,PAYLOAD,2023-04-26 08:09:32,15.08836823,9.26e-05,53.2165,250.0939,165.1135,194.9884,0.0015836,0.00025003,0.0,0 STARLINK-4597,1 53640U 22104BE  23116.33996119  .00025003  00000-0  15836-2 0  9996,2 53640  53.2165 250.0939 0000926 165.1135 194.9884 15.08836823 37961,6917.89,95.438,540.396,539.115,0.0
53640.0,STARLINK-4597,PAYLOAD,2023-04-26 19:17:13,15.08873965,0.0001076,53.2158,248.0129,133.1326,226.9756,0.0015442,0.00024396,0.0,0 STARLINK-4597,1 53640U 22104BE  23116.80363396  .00024396  00000-0  15442-2 0  9990,2 53640  53.2158 248.0129 0001076 133.1326 226.9756 15.08873965 38036,6917.777,95.435,540.386,538.897,0.0
